{
  "type": "FeatureCollection",
  "features": [
    {
      "type": "Feature",
      "properties": {
        "norad_id": 15362,
        "name": "NOVA 3",
        "group": "nnss",
        "lat": -7.386285888380757,
        "lon": 80.43920958267265,
        "alt_km": 1153.432230520466,
        "timestamp": "2025-12-03T06:58:43.506067+00:00",
        "meta_object_name": "NOVA 3",
        "meta_object_id": "1984-110A",
        "meta_epoch": "2025-12-02T20:45:05.345280",
        "meta_mean_motion": 13.2304265,
        "meta_eccentricity": 0.0031294,
        "meta_inclination": 90.1225,
        "meta_ra_of_asc_node": 80.4183,
        "meta_arg_of_pericenter": 359.6853,
        "meta_mean_anomaly": 124.5872,
        "meta_ephemeris_type": 0,
        "meta_classification_type": "U",
        "meta_norad_cat_id": 15362,
        "meta_element_set_no": 999,
        "meta_rev_at_epoch": 98568,
        "meta_bstar": 9.685e-05,
        "meta_mean_motion_dot": 4.9e-07,
        "meta_mean_motion_ddot": 0,
        "tle_line1": "1 15362U 84110A   25336.86464520  .00000049  00000+0  96850-4 0  9999",
        "tle_line2": "2 15362  90.1225  80.4183 0031294 359.6853 124.5872 13.23042650985681"
      },
      "geometry": {
        "type": "Point",
        "coordinates": [
          80.43920958267265,
          -7.386285888380757
        ]
      }
    },
    {
      "type": "Feature",
      "properties": {
        "norad_id": 15935,
        "name": "OSCAR 30",
        "group": "nnss",
        "lat": -10.979280145756661,
        "lon": 99.72459578449511,
        "alt_km": 1192.2772094787479,
        "timestamp": "2025-12-03T06:58:43.506078+00:00",
        "meta_object_name": "OSCAR 30",
        "meta_object_id": "1985-066A",
        "meta_epoch": "2025-12-02T19:03:55.225152",
        "meta_mean_motion": 13.36075692,
        "meta_eccentricity": 0.0169319,
        "meta_inclination": 90.1646,
        "meta_ra_of_asc_node": 99.6846,
        "meta_arg_of_pericenter": 111.6641,
        "meta_mean_anomaly": 12.9605,
        "meta_ephemeris_type": 0,
        "meta_classification_type": "U",
        "meta_norad_cat_id": 15935,
        "meta_element_set_no": 999,
        "meta_rev_at_epoch": 96320,
        "meta_bstar": 0.0002053,
        "meta_mean_motion_dot": 1.24e-06,
        "meta_mean_motion_ddot": 0,
        "tle_line1": "1 15935U 85066A   25336.79438918  .00000124  00000+0  20530-3 0  9995",
        "tle_line2": "2 15935  90.1646  99.6846 0169319 111.6641  12.9605 13.36075692963207"
      },
      "geometry": {
        "type": "Point",
        "coordinates": [
          99.72459578449511,
          -10.979280145756661
        ]
      }
    },
    {
      "type": "Feature",
      "properties": {
        "norad_id": 15936,
        "name": "OSCAR 24",
        "group": "nnss",
        "lat": 69.52867657721349,
        "lon": 91.65953600409877,
        "alt_km": 1029.702382010766,
        "timestamp": "2025-12-03T06:58:43.506089+00:00",
        "meta_object_name": "OSCAR 24",
        "meta_object_id": "1985-066B",
        "meta_epoch": "2025-12-02T20:24:33.086016",
        "meta_mean_motion": 13.35933406,
        "meta_eccentricity": 0.0170358,
        "meta_inclination": 90.1786,
        "meta_ra_of_asc_node": 92.1305,
        "meta_arg_of_pericenter": 117.9472,
        "meta_mean_anomaly": 356.2457,
        "meta_ephemeris_type": 0,
        "meta_classification_type": "U",
        "meta_norad_cat_id": 15936,
        "meta_element_set_no": 999,
        "meta_rev_at_epoch": 96511,
        "meta_bstar": 0.00014601,
        "meta_mean_motion_dot": 9.1e-07,
        "meta_mean_motion_ddot": 0,
        "tle_line1": "1 15936U 85066B   25336.85038294  .00000091  00000+0  14601-3 0  9991",
        "tle_line2": "2 15936  90.1786  92.1305 0170358 117.9472 356.2457 13.35933406965113"
      },
      "geometry": {
        "type": "Point",
        "coordinates": [
          91.65953600409877,
          69.52867657721349
        ]
      }
    },
    {
      "type": "Feature",
      "properties": {
        "norad_id": 17070,
        "name": "POLAR BEAR",
        "group": "nnss",
        "lat": 11.092295233470894,
        "lon": -175.77372887887054,
        "alt_km": 1003.3135564136892,
        "timestamp": "2025-12-03T06:58:43.506100+00:00",
        "meta_object_name": "POLAR BEAR",
        "meta_object_id": "1986-088A",
        "meta_epoch": "2025-12-02T20:30:03.281760",
        "meta_mean_motion": 13.75247631,
        "meta_eccentricity": 0.0040243,
        "meta_inclination": 89.6181,
        "meta_ra_of_asc_node": 184.1689,
        "meta_arg_of_pericenter": 148.0601,
        "meta_mean_anomaly": 223.3417,
        "meta_ephemeris_type": 0,
        "meta_classification_type": "U",
        "meta_norad_cat_id": 17070,
        "meta_element_set_no": 999,
        "meta_rev_at_epoch": 95843,
        "meta_bstar": 0.00013875,
        "meta_mean_motion_dot": 1.45e-06,
        "meta_mean_motion_ddot": 0,
        "tle_line1": "1 17070U 86088A   25336.85420465  .00000145  00000+0  13875-3 0  9994",
        "tle_line2": "2 17070  89.6181 184.1689 0040243 148.0601 223.3417 13.75247631958430"
      },
      "geometry": {
        "type": "Point",
        "coordinates": [
          -175.77372887887054,
          11.092295233470894
        ]
      }
    },
    {
      "type": "Feature",
      "properties": {
        "norad_id": 18361,
        "name": "OSCAR 27",
        "group": "nnss",
        "lat": -39.199804340275875,
        "lon": -101.38657587863699,
        "alt_km": 1032.6248336223962,
        "timestamp": "2025-12-03T06:58:43.506110+00:00",
        "meta_object_name": "OSCAR 27",
        "meta_object_id": "1987-080A",
        "meta_epoch": "2025-12-02T19:10:13.828224",
        "meta_mean_motion": 13.44903367,
        "meta_eccentricity": 0.0102333,
        "meta_inclination": 90.3742,
        "meta_ra_of_asc_node": 78.9004,
        "meta_arg_of_pericenter": 252.6672,
        "meta_mean_anomaly": 106.3262,
        "meta_ephemeris_type": 0,
        "meta_classification_type": "U",
        "meta_norad_cat_id": 18361,
        "meta_element_set_no": 999,
        "meta_rev_at_epoch": 87423,
        "meta_bstar": 0.0001967,
        "meta_mean_motion_dot": 1.26e-06,
        "meta_mean_motion_ddot": 0,
        "tle_line1": "1 18361U 87080A   25336.79877116  .00000126  00000+0  19670-3 0  9991",
        "tle_line2": "2 18361  90.3742  78.9004 0102333 252.6672 106.3262 13.44903367874230"
      },
      "geometry": {
        "type": "Point",
        "coordinates": [
          -101.38657587863699,
          -39.199804340275875
        ]
      }
    },
    {
      "type": "Feature",
      "properties": {
        "norad_id": 18362,
        "name": "OSCAR 29",
        "group": "nnss",
        "lat": -66.97954866164024,
        "lon": -101.50759452252507,
        "alt_km": 1031.3777507459035,
        "timestamp": "2025-12-03T06:58:43.506121+00:00",
        "meta_object_name": "OSCAR 29",
        "meta_object_id": "1987-080B",
        "meta_epoch": "2025-12-02T19:36:55.628064",
        "meta_mean_motion": 13.44445494,
        "meta_eccentricity": 0.0103678,
        "meta_inclination": 90.3756,
        "meta_ra_of_asc_node": 79.3592,
        "meta_arg_of_pericenter": 276.0475,
        "meta_mean_anomaly": 201.1902,
        "meta_ephemeris_type": 0,
        "meta_classification_type": "U",
        "meta_norad_cat_id": 18362,
        "meta_element_set_no": 999,
        "meta_rev_at_epoch": 87376,
        "meta_bstar": 0.00016466,
        "meta_mean_motion_dot": 1.06e-06,
        "meta_mean_motion_ddot": 0,
        "tle_line1": "1 18362U 87080B   25336.81731051  .00000106  00000+0  16466-3 0  9990",
        "tle_line2": "2 18362  90.3756  79.3592 0103678 276.0475 201.1902 13.44445494873761"
      },
      "geometry": {
        "type": "Point",
        "coordinates": [
          -101.50759452252507,
          -66.97954866164024
        ]
      }
    },
    {
      "type": "Feature",
      "properties": {
        "norad_id": 19070,
        "name": "OSCAR 23",
        "group": "nnss",
        "lat": -49.755917821954334,
        "lon": -164.28169733116945,
        "alt_km": 1031.1932912108969,
        "timestamp": "2025-12-03T06:58:43.506131+00:00",
        "meta_object_name": "OSCAR 23",
        "meta_object_id": "1988-033A",
        "meta_epoch": "2025-12-02T15:58:32.916864",
        "meta_mean_motion": 13.27784753,
        "meta_eccentricity": 0.01887005,
        "meta_inclination": 90.3225,
        "meta_ra_of_asc_node": 16.08,
        "meta_arg_of_pericenter": 207.9828,
        "meta_mean_anomaly": 274.4832,
        "meta_ephemeris_type": 0,
        "meta_classification_type": "U",
        "meta_norad_cat_id": 19070,
        "meta_element_set_no": 999,
        "meta_rev_at_epoch": 82119,
        "meta_bstar": 0.00022367884,
        "meta_mean_motion_dot": 1.19e-06,
        "meta_mean_motion_ddot": 0,
        "tle_line1": "1 19070U 88033A   25336.66565876  .00000119  00000+0  22368-3 0  9991",
        "tle_line2": "2 19070  90.3225  16.0800 0188700 207.9828 274.4832 13.27784753821193"
      },
      "geometry": {
        "type": "Point",
        "coordinates": [
          -164.28169733116945,
          -49.755917821954334
        ]
      }
    }
  ]
}